{"type": "FeatureCollection", "features": [{"type": "Feature", "id": "source_references.2766f6f3-d394-4153-8154-69231ef3c902", "geometry": {"type": "Polygon", "coordinates": [[[-1.9193, 50.6875], [-1.9219, 50.6875], [-1.9219, 50.6901], [-1.9245, 50.6927], [-1.9271, 50.6927], [-1.9271, 50.6953], [-1.9245, 50.6979], [-1.9193, 50.6979], [-1.9167, 50.7005], [-1.9141, 50.7031], [-1.9089, 50.7031], [-1.9062, 50.7057], [-1.9036, 50.7083], [-1.8984, 50.7083], [-1.8932, 50.7083], [-1.8906, 50.7109], [-1.888, 50.7135], [-1.8828, 50.7135], [-1.8776, 50.7135], [-1.8724, 50.7135], [-1.8672, 50.7135], [-1.8646, 50.7161], [-1.862, 50.7188], [-1.8568, 50.7188], [-1.8516, 50.7188], [-1.8464, 50.7188], [-1.8411, 50.7188], [-1.8359, 50.7188], [-1.8307, 50.7188], [-1.8255, 50.7188], [-1.8203, 50.7188], [-1.8151, 50.7188], [-1.8099, 50.7188], [-1.8047, 50.7188], [-1.7995, 50.7188], [-1.7943, 50.7188], [-1.7891, 50.7188], [-1.7839, 50.7188], [-1.7786, 50.7188], [-1.776, 50.7161], [-1.7734, 50.7135], [-1.7682, 50.7135], [-1.763, 50.7135], [-1.7578, 50.7135], [-1.7526, 50.7135], [-1.75, 50.7135], [-1.75, 50.7109], [-1.75, 50.7083], [-1.7526, 50.7083], [-1.7578, 50.7083], [-1.763, 50.7083], [-1.7682, 50.7083], [-1.7734, 50.7083], [-1.7786, 50.7083], [-1.7839, 50.7083], [-1.7891, 50.7083], [-1.7943, 50.7083], [-1.7995, 50.7083], [-1.8047, 50.7083], [-1.8099, 50.7083], [-1.8151, 50.7083], [-1.8203, 50.7083], [-1.8255, 50.7083], [-1.8307, 50.7083], [-1.8359, 50.7083], [-1.8411, 50.7083], [-1.8464, 50.7083], [-1.8516, 50.7083], [-1.8568, 50.7083], [-1.862, 50.7083], [-1.8672, 50.7083], [-1.8724, 50.7083], [-1.875, 50.7057], [-1.8776, 50.7031], [-1.8828, 50.7031], [-1.888, 50.7031], [-1.8932, 50.7031], [-1.8958, 50.7005], [-1.8984, 50.6979], [-1.9036, 50.6979], [-1.9062, 50.6953], [-1.9089, 50.6927], [-1.9141, 50.6927], [-1.9167, 50.6901], [-1.9193, 50.6875]]]}, "geometry_name": "geom", "properties": {"release": "2024", "date_start": "2024-12-31Z", "date_end": "2099-12-30Z", "edmo_id": 2607, "identifier": "117452", "type": "CDI", "device": null, "colour": "#cc000f", "metadata_url": "https://cdi-bathymetry.seadatanet.org/report/edmo/2607/117452"}, "bbox": [-1.9271, 50.6875, -1.75, 50.7188]}], "totalFeatures": 1, "numberMatched": 1, "numberReturned": 1, "timeStamp": "2026-10-05T21:36:07.852Z", "crs": {"type": "name", "properties": {"name": "urn:ogc:def:crs:EPSG::4326"}}, "bbox": [-1.9271, 50.6875, -1.75, 50.7188]}