{"type":"FeatureCollection","crs":{"type":"name","properties":{"name":"EPSG:28356"}},"features":[{"type":"Feature","id":4637,"geometry":{"type":"Polygon","coordinates":[[[542852.630300001,6904199.07129976],[542828.953600001,6904127.56319976],[542764.792000001,6904126.90179976],[542718.489900001,6904121.61009976],[542672.187700001,6904104.41219976],[542643.083499999,6904111.68819976],[542600.750000002,6904134.83929976],[542602.7344,6904187.75609976],[542588.7633,6904220.68689976],[542595.127599999,6904242.98799976],[542604.388100002,6904258.86299976],[542680.786699999,6904265.80829976],[542752.224299999,6904280.36039976],[542771.406599999,6904277.05309976],[542828.292200002,6904226.78219976],[542851.278000001,6904209.87909976],[542852.630300001,6904199.07129976]]]},"properties":{"OBJECTID":4637,"SAPOBJECTID":"000000006000100547","CLASS":"ARTIFICIAL_REEF","GIS_USER_STATUS":"INSV","OBJECT_TYPE":"ARTR","GIS_SYSTEM_STATUS":"INST","ARTIFICIAL_REEF_MATERIAL":"GEOTEXTILE","HEIGHT_M":3,"LENGTH_M":256,"WIDTH_M":151,"AREA_SQM":34409,"VOLUME":7668,"TOP_REDUCED_LEVEL":-2.5,"BASE_REDUCED_LEVEL":null,"FUNCTIONAL_LOC":"Y-BEACH-NARROWN","SUPERORD_EQUIP":null,"GIS_DESCRIPTION":"ARTIFICIAL REEF","SORT_FIELD":"FORE1230","GlobalID":"e026dc59-a9cd-49b6-9030-baa3ab0ad2b3"}},{"type":"Feature","id":4638,"geometry":{"type":"Polygon","coordinates":[[[546196.2757,6890866.38899976],[546204.913599999,6890865.75249976],[546216.667900003,6890864.47979976],[546217.7362,6890864.36609976],[546220.618600001,6890864.06489976],[546222.589200001,6890864.28079976],[546226.296600001,6890864.68849976],[546226.368700001,6890864.69609976],[546226.395400003,6890864.69529976],[546229.079800004,6890864.34499976],[546238.956300001,6890863.22219976],[546239.073499999,6890863.20839976],[546242.064399999,6890862.59389976],[546242.232200001,6890862.55949976],[546250.685500001,6890861.19999976],[546254.606700001,6890861.35599976],[546254.701799999,6890861.36009976],[546254.721800002,6890861.35899976],[546261.362800001,6890860.25879976],[546262.195300001,6890860.08779976],[546262.2042,6890860.08589976],[546269.206399999,6890858.60479976],[546274.563800001,6890859.01819976],[546276.6576,6890859.36129976],[546276.676899999,6890859.36259976],[546280.0628,6890859.24319976],[546280.0662,6890859.24309976],[546283.767700001,6890858.98389976],[546283.774400001,6890858.98319976],[546287.4482,6890858.46689976],[546290.2264,6890858.00439976],[546293.3716,6890857.25619976],[546293.377000001,6890857.25469976],[546296.468000002,6890856.32569976],[546296.4734,6890856.32399976],[546299.502000001,6890855.21619976],[546299.507300003,6890855.21409976],[546302.273100001,6890854.01289976],[546302.473900001,6890853.92509976],[546306.502100001,6890851.67199976],[546306.508700003,6890851.66799976],[546310.347600001,6890849.09729976],[546311.683000001,6890848.03829976],[546313.988700001,6890846.20869976],[546317.3723,6890843.04549976],[546317.377800004,6890843.03989976],[546320.492200002,6890839.61309976],[546320.497200003,6890839.60709976],[546323.3242,6890835.93409976],[546323.328700001,6890835.92769976],[546325.843000001,6890832.03969976],[546325.847000001,6890832.03299976],[546328.020499999,6890827.97759976],[546328.0379,6890827.94449976],[546329.599999999,6890824.37999976],[546329.726599999,6890823.96669976],[546330.6918,6890819.45319976],[546331.178299999,6890816.40229976],[546331.179,6890816.39659976],[546331.482700001,6890813.32059976],[546331.9912,6890807.55349976],[546331.9922,6890807.53799976],[546331.9904,6890807.43109976],[546331.929800001,6890803.90969976],[546332.012799999,6890795.19509976],[546332.011600002,6890795.17369976],[546331.999400004,6890795.10079976],[546331.2295,6890790.54209976],[546331.224000001,6890790.52249976],[546330.220600001,6890788.00989976],[546327.866400003,6890782.35199976],[546326.725399999,6890779.75599976],[546326.655800003,6890779.61539976],[546325.0838,6890778.02319976],[546322.903900003,6890775.94689976],[546322.8841,6890775.92889976],[546321.0128,6890774.50319976],[546320.9868,6890774.48919976],[546318.825200001,6890773.72149976],[546311.2887,6890771.41769976],[546307.9126,6890770.41659976],[546307.864400001,6890770.40229976],[546302.5335,6890768.88579976],[546300.571900001,6890768.24279976],[546298.555000001,6890767.64539976],[546296.331600001,6890767.15999976],[546293.928600001,6890766.72669976],[546290.032800001,6890766.50329976],[546286.341300003,6890766.22859976],[546286.333899999,6890766.22839976],[546282.828599999,6890766.23579976],[546282.697600001,6890766.23709976],[546279.986200001,6890766.60239976],[546277.473700003,6890767.01379976],[546274.9941,6890767.57979976],[546272.562099999,6890768.30689976],[546270.1863,6890769.20329976],[546270.159099999,6890769.21689976],[546266.949100001,6890770.83469976],[546266.9266,6890770.85059976],[546266.770399999,6890770.97619976],[546263.735900004,6890772.00289976],[546263.5743,6890772.05769976],[546260.7621,6890773.09879976],[546260.502500002,6890773.19469976],[546247.663599999,6890777.58469976],[546247.5088,6890777.63749976],[546240.664099999,6890779.78999976],[546240.6429,6890779.79959976],[546236.1363,6890782.52429976],[546233.731900002,6890783.28059976],[546229.278700003,6890784.68629976],[546229.082999999,6890784.74809976],[546218.917100001,6890787.98119976],[546218.254899999,6890788.20449976],[546208.060399999,6890791.79329976],[546205.475100001,6890792.60769976],[546204.194800001,6890793.00779976],[546194.722400001,6890796.09869976],[546194.549200001,6890796.15539976],[546185.785199999,6890799.31629976],[546184.6198,6890799.72419976],[546181.843500002,6890800.68729976],[546179.885000001,6890801.41649976],[546178.519000002,6890802.00469976],[546177.218400001,6890802.72619976],[546175.9965,6890803.57439976],[546174.864099999,6890804.54279976],[546173.4574,6890806.07559976],[546173.446699999,6890806.08909976],[546172.272200001,6890807.80489976],[546172.263500004,6890807.81989976],[546171.343300001,6890809.68689976],[546171.336799999,6890809.70279976],[546170.687400002,6890811.69289976],[546170.365,6890813.33919976],[546170.293499999,6890815.66179976],[546170.488099999,6890817.52379976],[546171.249999999,6890822.03129976],[546171.489299999,6890823.44489976],[546171.9021,6890825.06149976],[546172.5998,6890827.88769976],[546173.3168,6890830.79179976],[546173.338600001,6890830.84499976],[546175.560800001,6890834.10429976],[546179.6178,6890839.85639976],[546181.004900002,6890842.05659976],[546184.9813,6890847.54299976],[546186.382700001,6890849.44419976],[546189.3756,6890854.93919976],[546190.9417,6890857.39219976],[546190.9521,6890857.40489976],[546194.9059,6890862.20579976],[546196.2757,6890866.38899976]]]},"properties":{"OBJECTID":4638,"SAPOBJECTID":"000000006000171814","CLASS":"ARTIFICIAL_REEF","GIS_USER_STATUS":"INSV","OBJECT_TYPE":"ARTR","GIS_SYSTEM_STATUS":"INST","ARTIFICIAL_REEF_MATERIAL":"BOULDER","HEIGHT_M":5,"LENGTH_M":160,"WIDTH_M":80,"AREA_SQM":11941.7,"VOLUME":33000,"TOP_REDUCED_LEVEL":null,"BASE_REDUCED_LEVEL":null,"FUNCTIONAL_LOC":"Y-BEACH-PALMBEA","SUPERORD_EQUIP":null,"GIS_DESCRIPTION":"ARTIFICAL REEF","SORT_FIELD":null,"GlobalID":"b12d98eb-b20d-458e-9e56-de30a0df32ac"}},{"type":"Feature","id":4639,"geometry":{"type":"Polygon","coordinates":[[[544781.183700001,6906977.32729976],[544786.183699999,6906977.32729976],[544786.183700001,6906972.32729976],[544781.1837,6906972.32729976],[544781.183700001,6906977.32729976]]]},"properties":{"OBJECTID":4639,"SAPOBJECTID":"000000006000214213","CLASS":"ARTIFICIAL_REEF","GIS_USER_STATUS":"INSV","OBJECT_TYPE":"ARTR","GIS_SYSTEM_STATUS":"INST","ARTIFICIAL_REEF_MATERIAL":"STEEL","HEIGHT_M":21,"LENGTH_M":null,"WIDTH_M":5,"AREA_SQM":null,"VOLUME":72187.6,"TOP_REDUCED_LEVEL":null,"BASE_REDUCED_LEVEL":null,"FUNCTIONAL_LOC":"F-OTWRDA","SUPERORD_EQUIP":null,"GIS_DESCRIPTION":"Artificial Reef","SORT_FIELD":null,"GlobalID":"26252c1d-3070-4320-b27a-dcff7675911a"}},{"type":"Feature","id":4640,"geometry":{"type":"Polygon","coordinates":[[[544776.621800001,6906946.53379976],[544781.621799999,6906946.53379976],[544781.621800001,6906941.53379976],[544776.6218,6906941.53379976],[544776.621800001,6906946.53379976]]]},"properties":{"OBJECTID":4640,"SAPOBJECTID":"000000006000214216","CLASS":"ARTIFICIAL_REEF","GIS_USER_STATUS":"INSV","OBJECT_TYPE":"ARTR","GIS_SYSTEM_STATUS":"INST","ARTIFICIAL_REEF_MATERIAL":"STEEL","HEIGHT_M":21,"LENGTH_M":null,"WIDTH_M":5,"AREA_SQM":null,"VOLUME":72187.6,"TOP_REDUCED_LEVEL":null,"BASE_REDUCED_LEVEL":null,"FUNCTIONAL_LOC":"F-OTWRDA","SUPERORD_EQUIP":null,"GIS_DESCRIPTION":"Artificial Reef","SORT_FIELD":null,"GlobalID":"008334d2-b492-419e-86c7-150c32418f53"}},{"type":"Feature","id":4641,"geometry":{"type":"Polygon","coordinates":[[[544777.534199999,6906956.79819976],[544782.534200001,6906956.79819976],[544782.534199999,6906951.79819976],[544777.5342,6906951.79819976],[544777.534199999,6906956.79819976]]]},"properties":{"OBJECTID":4641,"SAPOBJECTID":"000000006000214217","CLASS":"ARTIFICIAL_REEF","GIS_USER_STATUS":"INSV","OBJECT_TYPE":"ARTR","GIS_SYSTEM_STATUS":"INST","ARTIFICIAL_REEF_MATERIAL":"STEEL","HEIGHT_M":21,"LENGTH_M":null,"WIDTH_M":5,"AREA_SQM":null,"VOLUME":72187.6,"TOP_REDUCED_LEVEL":null,"BASE_REDUCED_LEVEL":null,"FUNCTIONAL_LOC":"F-OTWRDA","SUPERORD_EQUIP":null,"GIS_DESCRIPTION":"Artificial Reef","SORT_FIELD":null,"GlobalID":"5b36a65f-bc46-4aa5-ba4a-fafab4b48b0a"}},{"type":"Feature","id":4642,"geometry":{"type":"Polygon","coordinates":[[[544785.061400001,6906968.65949976],[544790.061400001,6906968.65949976],[544790.061399999,6906963.65949976],[544785.061400001,6906963.65949976],[544785.061400001,6906968.65949976]]]},"properties":{"OBJECTID":4642,"SAPOBJECTID":"000000006000214218","CLASS":"ARTIFICIAL_REEF","GIS_USER_STATUS":"INSV","OBJECT_TYPE":"ARTR","GIS_SYSTEM_STATUS":"INST","ARTIFICIAL_REEF_MATERIAL":"STEEL","HEIGHT_M":21,"LENGTH_M":null,"WIDTH_M":5,"AREA_SQM":null,"VOLUME":72187.6,"TOP_REDUCED_LEVEL":null,"BASE_REDUCED_LEVEL":null,"FUNCTIONAL_LOC":"F-OTWRDA","SUPERORD_EQUIP":null,"GIS_DESCRIPTION":"Artificial Reef","SORT_FIELD":null,"GlobalID":"96e58983-60f0-4996-b264-ea9833af5299"}},{"type":"Feature","id":4643,"geometry":{"type":"Polygon","coordinates":[[[544755.6367,6906971.16849976],[544760.6367,6906971.16849976],[544760.6367,6906966.16849976],[544755.636699999,6906966.16849976],[544755.6367,6906971.16849976]]]},"properties":{"OBJECTID":4643,"SAPOBJECTID":"000000006000214219","CLASS":"ARTIFICIAL_REEF","GIS_USER_STATUS":"INSV","OBJECT_TYPE":"ARTR","GIS_SYSTEM_STATUS":"INST","ARTIFICIAL_REEF_MATERIAL":"STEEL","HEIGHT_M":21,"LENGTH_M":null,"WIDTH_M":5,"AREA_SQM":null,"VOLUME":72187.6,"TOP_REDUCED_LEVEL":null,"BASE_REDUCED_LEVEL":null,"FUNCTIONAL_LOC":"F-OTWRDA","SUPERORD_EQUIP":null,"GIS_DESCRIPTION":"Artificial Reef","SORT_FIELD":null,"GlobalID":"07283731-2049-48be-ab8b-50ecc7dd2591"}},{"type":"Feature","id":4644,"geometry":{"type":"Polygon","coordinates":[[[544790.992,6906980.52059976],[544795.992,6906980.52059976],[544795.991999999,6906975.52059976],[544790.991999999,6906975.52059976],[544790.992,6906980.52059976]]]},"properties":{"OBJECTID":4644,"SAPOBJECTID":"000000006000214220","CLASS":"ARTIFICIAL_REEF","GIS_USER_STATUS":"INSV","OBJECT_TYPE":"ARTR","GIS_SYSTEM_STATUS":"INST","ARTIFICIAL_REEF_MATERIAL":"STEEL","HEIGHT_M":21,"LENGTH_M":null,"WIDTH_M":5,"AREA_SQM":null,"VOLUME":72187.6,"TOP_REDUCED_LEVEL":null,"BASE_REDUCED_LEVEL":null,"FUNCTIONAL_LOC":"F-OTWRDA","SUPERORD_EQUIP":null,"GIS_DESCRIPTION":"Artificial Reef","SORT_FIELD":null,"GlobalID":"32196052-edc8-4a44-b871-3e43d5a3cf2f"}},{"type":"Feature","id":4645,"geometry":{"type":"Polygon","coordinates":[[[544768.866400001,6906953.60489976],[544773.866400001,6906953.60489976],[544773.866399999,6906948.60489976],[544768.866400001,6906948.60489976],[544768.866400001,6906953.60489976]]]},"properties":{"OBJECTID":4645,"SAPOBJECTID":"000000006000214221","CLASS":"ARTIFICIAL_REEF","GIS_USER_STATUS":"INSV","OBJECT_TYPE":"ARTR","GIS_SYSTEM_STATUS":"INST","ARTIFICIAL_REEF_MATERIAL":"STEEL","HEIGHT_M":21,"LENGTH_M":null,"WIDTH_M":5,"AREA_SQM":null,"VOLUME":72187.6,"TOP_REDUCED_LEVEL":null,"BASE_REDUCED_LEVEL":null,"FUNCTIONAL_LOC":"F-OTWRDA","SUPERORD_EQUIP":null,"GIS_DESCRIPTION":"Artificial Reef","SORT_FIELD":null,"GlobalID":"3c9d22c5-522c-4989-adfd-0b6c600d4c5f"}},{"type":"Feature","id":4646,"geometry":{"type":"Polygon","coordinates":[[[544745.6004,6906965.92219976],[544750.6004,6906965.92219976],[544750.600399999,6906960.92219976],[544745.600400001,6906960.92219976],[544745.6004,6906965.92219976]]]},"properties":{"OBJECTID":4646,"SAPOBJECTID":"000000006000214222","CLASS":"ARTIFICIAL_REEF","GIS_USER_STATUS":"INSV","OBJECT_TYPE":"ARTR","GIS_SYSTEM_STATUS":"INST","ARTIFICIAL_REEF_MATERIAL":"STEEL","HEIGHT_M":21,"LENGTH_M":null,"WIDTH_M":5,"AREA_SQM":null,"VOLUME":72187.6,"TOP_REDUCED_LEVEL":null,"BASE_REDUCED_LEVEL":null,"FUNCTIONAL_LOC":"F-OTWRDA","SUPERORD_EQUIP":null,"GIS_DESCRIPTION":"Artificial Reef","SORT_FIELD":null,"GlobalID":"dfa3e082-e0e2-459c-b3b4-a67c383e77a2"}},{"type":"Feature","id":4647,"geometry":{"type":"Polygon","coordinates":[[[544755.636700001,6906959.30739976],[544760.636700002,6906959.30739976],[544760.6367,6906954.30739976],[544755.6367,6906954.30739976],[544755.636700001,6906959.30739976]]]},"properties":{"OBJECTID":4647,"SAPOBJECTID":"000000006000214223","CLASS":"ARTIFICIAL_REEF","GIS_USER_STATUS":"INSV","OBJECT_TYPE":"ARTR","GIS_SYSTEM_STATUS":"INST","ARTIFICIAL_REEF_MATERIAL":"STEEL","HEIGHT_M":21,"LENGTH_M":null,"WIDTH_M":5,"AREA_SQM":null,"VOLUME":72187.6,"TOP_REDUCED_LEVEL":null,"BASE_REDUCED_LEVEL":null,"FUNCTIONAL_LOC":"F-OTWRDA","SUPERORD_EQUIP":null,"GIS_DESCRIPTION":"Artificial Reef","SORT_FIELD":null,"GlobalID":"e835a479-02d8-4db7-aac1-2fb924901ef2"}}]}