{"type":"FeatureCollection","crs":{"type":"name","properties":{"name":"EPSG:4326"}},"features":[{"type":"Feature","id":4637,"geometry":{"type":"Polygon","coordinates":[[[153.435787267962,-27.9866458836493],[153.43554909211,-27.9872921536663],[153.434896648901,-27.9873001887171],[153.434425988573,-27.9873494451395],[153.433955757105,-27.9875061778711],[153.433659529495,-27.9874414304837],[153.43322819891,-27.9872338008513],[153.433246469089,-27.9867560543939],[153.433103208084,-27.9864592336409],[153.433167122419,-27.9862577165512],[153.433260719879,-27.9861141154328],[153.434037367241,-27.9860489704918],[153.434763289769,-27.9859153136384],[153.43495847426,-27.9859445521207],[153.435538767161,-27.986396519788],[153.435773124091,-27.9865483646333],[153.435787267962,-27.9866458836493]]]},"properties":{"OBJECTID":4637,"SAPOBJECTID":"000000006000100547","CLASS":"ARTIFICIAL_REEF","GIS_USER_STATUS":"INSV","OBJECT_TYPE":"ARTR","GIS_SYSTEM_STATUS":"INST","ARTIFICIAL_REEF_MATERIAL":"GEOTEXTILE","HEIGHT_M":3,"LENGTH_M":256,"WIDTH_M":151,"AREA_SQM":34409,"VOLUME":7668,"TOP_REDUCED_LEVEL":-2.5,"BASE_REDUCED_LEVEL":null,"FUNCTIONAL_LOC":"Y-BEACH-NARROWN","SUPERORD_EQUIP":null,"GIS_DESCRIPTION":"ARTIFICIAL REEF","SORT_FIELD":"FORE1230","GlobalID":"e026dc59-a9cd-49b6-9030-baa3ab0ad2b3"}},{"type":"Feature","id":4638,"geometry":{"type":"Polygon","coordinates":[[[153.470312175024,-28.1068871599207],[153.470400136747,-28.1068926039544],[153.470519849513,-28.1069036819837],[153.470530729638,-28.1069046710278],[153.470560085285,-28.1069072892476],[153.470580138139,-28.1069052715235],[153.470617864633,-28.1069014617804],[153.470618598336,-28.1069013906579],[153.470618870182,-28.1069013969467],[153.470646212059,-28.1069044652826],[153.470746802329,-28.1069142555833],[153.470747996008,-28.1069143760589],[153.470778468574,-28.1069198185532],[153.470780178189,-28.1069201232135],[153.470866289166,-28.1069320998112],[153.470906202135,-28.1069305545752],[153.470907170122,-28.1069305142411],[153.470907373772,-28.1069305234716],[153.47097502473,-28.1069402226805],[153.470983506599,-28.10694173717],[153.470983597279,-28.1069417540099],[153.471054940405,-28.1069548788799],[153.471109464224,-28.1069509598588],[153.471130766275,-28.1069477895309],[153.471130962704,-28.1069477771211],[153.471165437003,-28.1069487365227],[153.47116547162,-28.1069487373065],[153.471203164347,-28.1069509476154],[153.471203232583,-28.1069509536999],[153.471240653458,-28.1069554857706],[153.471268954706,-28.1069595635137],[153.47130100341,-28.1069662073841],[153.471301058443,-28.1069662207355],[153.47133256251,-28.1069744985489],[153.471332617551,-28.1069745137057],[153.471363493424,-28.1069844076957],[153.471363547463,-28.1069844264667],[153.471391751635,-28.1069951727524],[153.471393799311,-28.1069959582843],[153.471434896659,-28.107016155735],[153.471434964007,-28.1070161916115],[153.471474146765,-28.1070392626016],[153.471487783389,-28.1070487753039],[153.471511328416,-28.1070652101382],[153.471545899484,-28.1070936454499],[153.471545955697,-28.1070936958077],[153.471577796639,-28.1071245200104],[153.471577847778,-28.1071245739965],[153.471606772624,-28.107157630662],[153.471606818689,-28.1071576882764],[153.471632568644,-28.1071926966545],[153.47163260963,-28.1071927569944],[153.471654896745,-28.1072292883926],[153.47165507519,-28.1072295865721],[153.471671118665,-28.1072617080906],[153.471672423817,-28.1072654344553],[153.471682428112,-28.107306143349],[153.471687501322,-28.1073336663313],[153.471687508673,-28.1073337177598],[153.471690721906,-28.1073614737157],[153.471696126338,-28.107413514655],[153.471696137131,-28.1074136545362],[153.471696123027,-28.1074146195694],[153.471695645139,-28.1074464088378],[153.471696834208,-28.1075250713113],[153.471696822836,-28.1075252645279],[153.471696701514,-28.1075259230123],[153.471689043633,-28.107567100664],[153.471688988414,-28.1075672777828],[153.471678872617,-28.107589993773],[153.471655129321,-28.1076411492003],[153.47164361598,-28.1076646228442],[153.471642912975,-28.1076658944556],[153.471626972245,-28.1076803220352],[153.471604861956,-28.1076991407899],[153.471604661094,-28.1076993039663],[153.471585666786,-28.1077122390476],[153.471585402649,-28.1077123663336],[153.47156342699,-28.1077193719066],[153.471486793291,-28.1077404317289],[153.471452462726,-28.1077495866528],[153.471451972594,-28.1077497174234],[153.471397761697,-28.1077635931751],[153.471377817177,-28.1077694660726],[153.471357307879,-28.1077749292776],[153.471334691905,-28.1077793886969],[153.471310245472,-28.1077833840965],[153.471270593436,-28.1077855369748],[153.471233023281,-28.1077881457733],[153.471232947954,-28.1077881478375],[153.471197262263,-28.1077882036393],[153.471195928577,-28.1077881964861],[153.471168310999,-28.1077849938046],[153.471142716488,-28.1077813680241],[153.471117450817,-28.1077763455375],[153.471092663384,-28.1077698671563],[153.471068441416,-28.1077618585599],[153.471068163972,-28.1077617367458],[153.471035421065,-28.1077472453416],[153.471035191379,-28.1077471026013],[153.471033596247,-28.1077459742901],[153.471002663317,-28.1077368125129],[153.471001016002,-28.1077363234911],[153.470972345614,-28.1077270239487],[153.470969698999,-28.1077261673488],[153.470838820745,-28.1076869882305],[153.470837242738,-28.1076865170227],[153.470767476106,-28.1076673259159],[153.470767259903,-28.1076672399989],[153.470721273541,-28.1076428020038],[153.470696765989,-28.1076360590019],[153.470651375255,-28.1076235255328],[153.470649380517,-28.10762297451],[153.470545760263,-28.1075941448918],[153.47053901001,-28.1075921523238],[153.470435084647,-28.1075601127693],[153.470408733211,-28.1075528515719],[153.470395683501,-28.1075492846308],[153.470299129081,-28.107521714229],[153.470297363606,-28.1075212084525],[153.470208018265,-28.1074929813778],[153.470196137988,-28.1074893399979],[153.470167836279,-28.1074807431269],[153.470147869297,-28.1074742290927],[153.470133939743,-28.1074689671663],[153.470120670743,-28.1074624996771],[153.470108197954,-28.1074548857385],[153.470096631581,-28.1074461836483],[153.470082250522,-28.1074323963729],[153.470082141061,-28.1074322748838],[153.470070116689,-28.1074168275915],[153.47007002753,-28.1074166924923],[153.470060586082,-28.1073998714666],[153.470060519284,-28.1073997281664],[153.470053829842,-28.1073817864866],[153.470050482911,-28.1073669368293],[153.470049663627,-28.1073459735587],[153.470051571463,-28.1073291587719],[153.470059150527,-28.1072884436568],[153.470061531066,-28.1072756749505],[153.470065669911,-28.1072610677398],[153.470072661543,-28.1072355317091],[153.470079846588,-28.1072092918129],[153.470080066427,-28.1072088108238],[153.470102560964,-28.1071793120702],[153.470143636298,-28.1071272471522],[153.470157670873,-28.1071073378691],[153.470197936076,-28.1070576741821],[153.47021212798,-28.107040463423],[153.470242380431,-28.1069907564163],[153.470258227299,-28.1069685588873],[153.470258332675,-28.1069684438833],[153.470298394691,-28.1069249688626],[153.470312175024,-28.1068871599207]]]},"properties":{"OBJECTID":4638,"SAPOBJECTID":"000000006000171814","CLASS":"ARTIFICIAL_REEF","GIS_USER_STATUS":"INSV","OBJECT_TYPE":"ARTR","GIS_SYSTEM_STATUS":"INST","ARTIFICIAL_REEF_MATERIAL":"BOULDER","HEIGHT_M":5,"LENGTH_M":160,"WIDTH_M":80,"AREA_SQM":11941.7,"VOLUME":33000,"TOP_REDUCED_LEVEL":null,"BASE_REDUCED_LEVEL":null,"FUNCTIONAL_LOC":"Y-BEACH-PALMBEA","SUPERORD_EQUIP":null,"GIS_DESCRIPTION":"ARTIFICAL REEF","SORT_FIELD":null,"GlobalID":"b12d98eb-b20d-458e-9e56-de30a0df32ac"}},{"type":"Feature","id":4639,"geometry":{"type":"Polygon","coordinates":[[[153.455293508048,-27.9615029071243],[153.45534434143,-27.9615027389498],[153.455344530847,-27.9615478742595],[153.455293697443,-27.9615480424342],[153.455293508048,-27.9615029071243]]]},"properties":{"OBJECTID":4639,"SAPOBJECTID":"000000006000214213","CLASS":"ARTIFICIAL_REEF","GIS_USER_STATUS":"INSV","OBJECT_TYPE":"ARTR","GIS_SYSTEM_STATUS":"INST","ARTIFICIAL_REEF_MATERIAL":"STEEL","HEIGHT_M":21,"LENGTH_M":null,"WIDTH_M":5,"AREA_SQM":null,"VOLUME":72187.6,"TOP_REDUCED_LEVEL":null,"BASE_REDUCED_LEVEL":null,"FUNCTIONAL_LOC":"F-OTWRDA","SUPERORD_EQUIP":null,"GIS_DESCRIPTION":"Artificial Reef","SORT_FIELD":null,"GlobalID":"26252c1d-3070-4320-b27a-dcff7675911a"}},{"type":"Feature","id":4640,"geometry":{"type":"Polygon","coordinates":[[[153.455248295003,-27.9617810353773],[153.455299128515,-27.961780867218],[153.455299317915,-27.9618260025261],[153.455248484381,-27.9618261706857],[153.455248295003,-27.9617810353773]]]},"properties":{"OBJECTID":4640,"SAPOBJECTID":"000000006000214216","CLASS":"ARTIFICIAL_REEF","GIS_USER_STATUS":"INSV","OBJECT_TYPE":"ARTR","GIS_SYSTEM_STATUS":"INST","ARTIFICIAL_REEF_MATERIAL":"STEEL","HEIGHT_M":21,"LENGTH_M":null,"WIDTH_M":5,"AREA_SQM":null,"VOLUME":72187.6,"TOP_REDUCED_LEVEL":null,"BASE_REDUCED_LEVEL":null,"FUNCTIONAL_LOC":"F-OTWRDA","SUPERORD_EQUIP":null,"GIS_DESCRIPTION":"Artificial Reef","SORT_FIELD":null,"GlobalID":"008334d2-b492-419e-86c7-150c32418f53"}},{"type":"Feature","id":4641,"geometry":{"type":"Polygon","coordinates":[[[153.455257182324,-27.9616883473203],[153.455308015793,-27.9616881791582],[153.455308205196,-27.9617333144669],[153.455257371706,-27.9617334826292],[153.455257182324,-27.9616883473203]]]},"properties":{"OBJECTID":4641,"SAPOBJECTID":"000000006000214217","CLASS":"ARTIFICIAL_REEF","GIS_USER_STATUS":"INSV","OBJECT_TYPE":"ARTR","GIS_SYSTEM_STATUS":"INST","ARTIFICIAL_REEF_MATERIAL":"STEEL","HEIGHT_M":21,"LENGTH_M":null,"WIDTH_M":5,"AREA_SQM":null,"VOLUME":72187.6,"TOP_REDUCED_LEVEL":null,"BASE_REDUCED_LEVEL":null,"FUNCTIONAL_LOC":"F-OTWRDA","SUPERORD_EQUIP":null,"GIS_DESCRIPTION":"Artificial Reef","SORT_FIELD":null,"GlobalID":"5b36a65f-bc46-4aa5-ba4a-fafab4b48b0a"}},{"type":"Feature","id":4642,"geometry":{"type":"Polygon","coordinates":[[[153.455333259726,-27.9615810214672],[153.455384093144,-27.9615808532777],[153.455384282578,-27.9616259885866],[153.455333449138,-27.9616261567764],[153.455333259726,-27.9615810214672]]]},"properties":{"OBJECTID":4642,"SAPOBJECTID":"000000006000214218","CLASS":"ARTIFICIAL_REEF","GIS_USER_STATUS":"INSV","OBJECT_TYPE":"ARTR","GIS_SYSTEM_STATUS":"INST","ARTIFICIAL_REEF_MATERIAL":"STEEL","HEIGHT_M":21,"LENGTH_M":null,"WIDTH_M":5,"AREA_SQM":null,"VOLUME":72187.6,"TOP_REDUCED_LEVEL":null,"BASE_REDUCED_LEVEL":null,"FUNCTIONAL_LOC":"F-OTWRDA","SUPERORD_EQUIP":null,"GIS_DESCRIPTION":"Artificial Reef","SORT_FIELD":null,"GlobalID":"96e58983-60f0-4996-b264-ea9833af5299"}},{"type":"Feature","id":4643,"geometry":{"type":"Polygon","coordinates":[[[153.455034013116,-27.9615593619729],[153.455084846526,-27.961559193894],[153.455085035835,-27.9616043292049],[153.455034202404,-27.9616044972841],[153.455034013116,-27.9615593619729]]]},"properties":{"OBJECTID":4643,"SAPOBJECTID":"000000006000214219","CLASS":"ARTIFICIAL_REEF","GIS_USER_STATUS":"INSV","OBJECT_TYPE":"ARTR","GIS_SYSTEM_STATUS":"INST","ARTIFICIAL_REEF_MATERIAL":"STEEL","HEIGHT_M":21,"LENGTH_M":null,"WIDTH_M":5,"AREA_SQM":null,"VOLUME":72187.6,"TOP_REDUCED_LEVEL":null,"BASE_REDUCED_LEVEL":null,"FUNCTIONAL_LOC":"F-OTWRDA","SUPERORD_EQUIP":null,"GIS_DESCRIPTION":"Artificial Reef","SORT_FIELD":null,"GlobalID":"07283731-2049-48be-ab8b-50ecc7dd2591"}},{"type":"Feature","id":4644,"geometry":{"type":"Polygon","coordinates":[[[153.455393104875,-27.9614737510887],[153.455443938242,-27.9614735828777],[153.4554441277,-27.9615187181869],[153.455393294311,-27.9615188863982],[153.455393104875,-27.9614737510887]]]},"properties":{"OBJECTID":4644,"SAPOBJECTID":"000000006000214220","CLASS":"ARTIFICIAL_REEF","GIS_USER_STATUS":"INSV","OBJECT_TYPE":"ARTR","GIS_SYSTEM_STATUS":"INST","ARTIFICIAL_REEF_MATERIAL":"STEEL","HEIGHT_M":21,"LENGTH_M":null,"WIDTH_M":5,"AREA_SQM":null,"VOLUME":72187.6,"TOP_REDUCED_LEVEL":null,"BASE_REDUCED_LEVEL":null,"FUNCTIONAL_LOC":"F-OTWRDA","SUPERORD_EQUIP":null,"GIS_DESCRIPTION":"Artificial Reef","SORT_FIELD":null,"GlobalID":"32196052-edc8-4a44-b871-3e43d5a3cf2f"}},{"type":"Feature","id":4645,"geometry":{"type":"Polygon","coordinates":[[[153.455169180381,-27.9617174649115],[153.455220013865,-27.9617172967818],[153.455220203231,-27.9617624320909],[153.455169369727,-27.9617626002208],[153.455169180381,-27.9617174649115]]]},"properties":{"OBJECTID":4645,"SAPOBJECTID":"000000006000214221","CLASS":"ARTIFICIAL_REEF","GIS_USER_STATUS":"INSV","OBJECT_TYPE":"ARTR","GIS_SYSTEM_STATUS":"INST","ARTIFICIAL_REEF_MATERIAL":"STEEL","HEIGHT_M":21,"LENGTH_M":null,"WIDTH_M":5,"AREA_SQM":null,"VOLUME":72187.6,"TOP_REDUCED_LEVEL":null,"BASE_REDUCED_LEVEL":null,"FUNCTIONAL_LOC":"F-OTWRDA","SUPERORD_EQUIP":null,"GIS_DESCRIPTION":"Artificial Reef","SORT_FIELD":null,"GlobalID":"3c9d22c5-522c-4989-adfd-0b6c600d4c5f"}},{"type":"Feature","id":4646,"geometry":{"type":"Polygon","coordinates":[[[153.454932175811,-27.9616070579716],[153.454983009244,-27.96160688993],[153.454983198511,-27.9616520252413],[153.454932365057,-27.9616521932831],[153.454932175811,-27.9616070579716]]]},"properties":{"OBJECTID":4646,"SAPOBJECTID":"000000006000214222","CLASS":"ARTIFICIAL_REEF","GIS_USER_STATUS":"INSV","OBJECT_TYPE":"ARTR","GIS_SYSTEM_STATUS":"INST","ARTIFICIAL_REEF_MATERIAL":"STEEL","HEIGHT_M":21,"LENGTH_M":null,"WIDTH_M":5,"AREA_SQM":null,"VOLUME":72187.6,"TOP_REDUCED_LEVEL":null,"BASE_REDUCED_LEVEL":null,"FUNCTIONAL_LOC":"F-OTWRDA","SUPERORD_EQUIP":null,"GIS_DESCRIPTION":"Artificial Reef","SORT_FIELD":null,"GlobalID":"dfa3e082-e0e2-459c-b3b4-a67c383e77a2"}},{"type":"Feature","id":4647,"geometry":{"type":"Polygon","coordinates":[[[153.455034462149,-27.9616664328604],[153.455085295609,-27.9616662647807],[153.455085484919,-27.9617114000909],[153.455034651437,-27.9617115681709],[153.455034462149,-27.9616664328604]]]},"properties":{"OBJECTID":4647,"SAPOBJECTID":"000000006000214223","CLASS":"ARTIFICIAL_REEF","GIS_USER_STATUS":"INSV","OBJECT_TYPE":"ARTR","GIS_SYSTEM_STATUS":"INST","ARTIFICIAL_REEF_MATERIAL":"STEEL","HEIGHT_M":21,"LENGTH_M":null,"WIDTH_M":5,"AREA_SQM":null,"VOLUME":72187.6,"TOP_REDUCED_LEVEL":null,"BASE_REDUCED_LEVEL":null,"FUNCTIONAL_LOC":"F-OTWRDA","SUPERORD_EQUIP":null,"GIS_DESCRIPTION":"Artificial Reef","SORT_FIELD":null,"GlobalID":"e835a479-02d8-4db7-aac1-2fb924901ef2"}}]}